{
  "type": "FeatureCollection",
  "features": [
    {
      "type": "Feature",
      "properties": {
        "norad_id": 66518,
        "name": "STARLINK-35962",
        "group": "last-30-days",
        "lat": 15.1650272086595,
        "lon": -141.40962652864226,
        "alt_km": 413.09652272686344,
        "timestamp": "2025-12-12T11:38:30.169268+00:00",
        "meta_object_name": "STARLINK-35962",
        "meta_object_id": "2025-265C",
        "meta_epoch": "2025-12-12T04:00:01.998720",
        "meta_mean_motion": 15.50581923,
        "meta_eccentricity": 0.0002201,
        "meta_inclination": 43,
        "meta_ra_of_asc_node": 57.3627,
        "meta_arg_of_pericenter": 268.0943,
        "meta_mean_anomaly": 269.9005,
        "meta_ephemeris_type": 0,
        "meta_classification_type": "U",
        "meta_norad_cat_id": 66518,
        "meta_element_set_no": 999,
        "meta_rev_at_epoch": 490,
        "meta_bstar": 0.00093953,
        "meta_mean_motion_dot": 0.00055173,
        "meta_mean_motion_ddot": 0,
        "tle_line1": "1 66518U 25265C   25346.16668980  .00055173  00000+0  93953-3 0  9992",
        "tle_line2": "2 66518  43.0000  57.3627 0002201 268.0943 269.9005 15.50581923  4905"
      },
      "geometry": {
        "type": "Point",
        "coordinates": [
          -141.40962652864226,
          15.1650272086595
        ]
      }
    },
    {
      "type": "Feature",
      "properties": {
        "norad_id": 66519,
        "name": "STARLINK-35931",
        "group": "last-30-days",
        "lat": 13.867608356927024,
        "lon": -139.86727913380415,
        "alt_km": 413.4308761484117,
        "timestamp": "2025-12-12T11:38:30.169278+00:00",
        "meta_object_name": "STARLINK-35931",
        "meta_object_id": "2025-265D",
        "meta_epoch": "2025-12-12T04:00:01.998720",
        "meta_mean_motion": 15.50821856,
        "meta_eccentricity": 0.0001538,
        "meta_inclination": 43.0004,
        "meta_ra_of_asc_node": 57.3583,
        "meta_arg_of_pericenter": 268.8605,
        "meta_mean_anomaly": 271.0297,
        "meta_ephemeris_type": 0,
        "meta_classification_type": "U",
        "meta_norad_cat_id": 66519,
        "meta_element_set_no": 999,
        "meta_rev_at_epoch": 490,
        "meta_bstar": -0.008212,
        "meta_mean_motion_dot": -0.00458885,
        "meta_mean_motion_ddot": 0,
        "tle_line1": "1 66519U 25265D   25346.16668980 -.00458885  00000+0 -82120-2 0  9995",
        "tle_line2": "2 66519  43.0004  57.3583 0001538 268.8605 271.0297 15.50821856  4905"
      },
      "geometry": {
        "type": "Point",
        "coordinates": [
          -139.86727913380415,
          13.867608356927024
        ]
      }
    },
    {
      "type": "Feature",
      "properties": {
        "norad_id": 66520,
        "name": "STARLINK-35952",
        "group": "last-30-days",
        "lat": 15.66917740235134,
        "lon": -142.0180506162742,
        "alt_km": 422.8803847081799,
        "timestamp": "2025-12-12T11:38:30.169288+00:00",
        "meta_object_name": "STARLINK-35952",
        "meta_object_id": "2025-265E",
        "meta_epoch": "2025-12-12T04:00:01.998720",
        "meta_mean_motion": 15.48630189,
        "meta_eccentricity": 0.0001297,
        "meta_inclination": 43.0002,
        "meta_ra_of_asc_node": 57.356,
        "meta_arg_of_pericenter": 264.6299,
        "meta_mean_anomaly": 275.6793,
        "meta_ephemeris_type": 0,
        "meta_classification_type": "U",
        "meta_norad_cat_id": 66520,
        "meta_element_set_no": 999,
        "meta_rev_at_epoch": 490,
        "meta_bstar": -0.0422,
        "meta_mean_motion_dot": -0.02056012,
        "meta_mean_motion_ddot": 0,
        "tle_line1": "1 66520U 25265E   25346.16668980 -.02056012  00000+0 -42200-1 0  9999",
        "tle_line2": "2 66520  43.0002  57.3560 0001297 264.6299 275.6793 15.48630189  4900"
      },
      "geometry": {
        "type": "Point",
        "coordinates": [
          -142.0180506162742,
          15.66917740235134
        ]
      }
    },
    {
      "type": "Feature",
      "properties": {
        "norad_id": 66521,
        "name": "STARLINK-35915",
        "group": "last-30-days",
        "lat": 11.424589798201053,
        "lon": -137.03934844946698,
        "alt_km": 413.44548226909774,
        "timestamp": "2025-12-12T11:38:30.169298+00:00",
        "meta_object_name": "STARLINK-35915",
        "meta_object_id": "2025-265F",
        "meta_epoch": "2025-12-12T04:00:01.998720",
        "meta_mean_motion": 15.5048688,
        "meta_eccentricity": 0.0001824,
        "meta_inclination": 43.0002,
        "meta_ra_of_asc_node": 57.3479,
        "meta_arg_of_pericenter": 260.0592,
        "meta_mean_anomaly": 283.6903,
        "meta_ephemeris_type": 0,
        "meta_classification_type": "U",
        "meta_norad_cat_id": 66521,
        "meta_element_set_no": 999,
        "meta_rev_at_epoch": 490,
        "meta_bstar": 0.0019891,
        "meta_mean_motion_dot": 0.00117733,
        "meta_mean_motion_ddot": 0,
        "tle_line1": "1 66521U 25265F   25346.16668980  .00117733  00000+0  19891-2 0  9995",
        "tle_line2": "2 66521  43.0002  57.3479 0001824 260.0592 283.6903 15.50486880  4904"
      },
      "geometry": {
        "type": "Point",
        "coordinates": [
          -137.03934844946698,
          11.424589798201053
        ]
      }
    },
    {
      "type": "Feature",
      "properties": {
        "norad_id": 66522,
        "name": "STARLINK-35946",
        "group": "last-30-days",
        "lat": 10.19927606265176,
        "lon": -135.65119181004113,
        "alt_km": 413.5950113248937,
        "timestamp": "2025-12-12T11:38:30.169312+00:00",
        "meta_object_name": "STARLINK-35946",
        "meta_object_id": "2025-265G",
        "meta_epoch": "2025-12-12T04:00:01.998720",
        "meta_mean_motion": 15.50519792,
        "meta_eccentricity": 0.0002018,
        "meta_inclination": 43,
        "meta_ra_of_asc_node": 57.3437,
        "meta_arg_of_pericenter": 264.0185,
        "meta_mean_anomaly": 281.5292,
        "meta_ephemeris_type": 0,
        "meta_classification_type": "U",
        "meta_norad_cat_id": 66522,
        "meta_element_set_no": 999,
        "meta_rev_at_epoch": 490,
        "meta_bstar": 0.0020501,
        "meta_mean_motion_dot": 0.00121558,
        "meta_mean_motion_ddot": 0,
        "tle_line1": "1 66522U 25265G   25346.16668980  .00121558  00000+0  20501-2 0  9996",
        "tle_line2": "2 66522  43.0000  57.3437 0002018 264.0185 281.5292 15.50519792  4902"
      },
      "geometry": {
        "type": "Point",
        "coordinates": [
          -135.65119181004113,
          10.19927606265176
        ]
      }
    },
    {
      "type": "Feature",
      "properties": {
        "norad_id": 66523,
        "name": "STARLINK-35969",
        "group": "last-30-days",
        "lat": 8.865903943200529,
        "lon": -134.16012346672696,
        "alt_km": 415.138298148996,
        "timestamp": "2025-12-12T11:38:30.169322+00:00",
        "meta_object_name": "STARLINK-35969",
        "meta_object_id": "2025-265H",
        "meta_epoch": "2025-12-12T04:00:01.998720",
        "meta_mean_motion": 15.50478911,
        "meta_eccentricity": 0.0004462,
        "meta_inclination": 43.0003,
        "meta_ra_of_asc_node": 57.3387,
        "meta_arg_of_pericenter": 285.0358,
        "meta_mean_anomaly": 262.5629,
        "meta_ephemeris_type": 0,
        "meta_classification_type": "U",
        "meta_norad_cat_id": 66523,
        "meta_element_set_no": 999,
        "meta_rev_at_epoch": 490,
        "meta_bstar": 0.0022902,
        "meta_mean_motion_dot": 0.00135922,
        "meta_mean_motion_ddot": 0,
        "tle_line1": "1 66523U 25265H   25346.16668980  .00135922  00000+0  22902-2 0  9994",
        "tle_line2": "2 66523  43.0003  57.3387 0004462 285.0358 262.5629 15.50478911  4900"
      },
      "geometry": {
        "type": "Point",
        "coordinates": [
          -134.16012346672696,
          8.865903943200529
        ]
      }
    },
    {
      "type": "Feature",
      "properties": {
        "norad_id": 66524,
        "name": "STARLINK-35687",
        "group": "last-30-days",
        "lat": 22.180415671593092,
        "lon": -150.41833156636585,
        "alt_km": 434.2746902990639,
        "timestamp": "2025-12-12T11:38:30.169333+00:00",
        "meta_object_name": "STARLINK-35687",
        "meta_object_id": "2025-265J",
        "meta_epoch": "2025-12-12T04:00:01.998720",
        "meta_mean_motion": 15.44492023,
        "meta_eccentricity": 0.0001157,
        "meta_inclination": 43.0004,
        "meta_ra_of_asc_node": 57.37,
        "meta_arg_of_pericenter": 277.6175,
        "meta_mean_anomaly": 257.1514,
        "meta_ephemeris_type": 0,
        "meta_classification_type": "U",
        "meta_norad_cat_id": 66524,
        "meta_element_set_no": 999,
        "meta_rev_at_epoch": 490,
        "meta_bstar": -0.047931,
        "meta_mean_motion_dot": -0.02024806,
        "meta_mean_motion_ddot": 0,
        "tle_line1": "1 66524U 25265J   25346.16668980 -.02024806  00000+0 -47931-1 0  9995",
        "tle_line2": "2 66524  43.0004  57.3700 0001157 277.6175 257.1514 15.44492023  4909"
      },
      "geometry": {
        "type": "Point",
        "coordinates": [
          -150.41833156636585,
          22.180415671593092
        ]
      }
    }
  ]
}